[{"OBJECT_NAME":"SHERPA-LTC2","OBJECT_ID":"2022-107BG","EPOCH":"2026-03-09T17:14:31.494912","MEAN_MOTION":14.68527555,"ECCENTRICITY":0.0397806,"INCLINATION":53.2359,"RA_OF_ASC_NODE":281.0426,"ARG_OF_PERICENTER":308.3547,"MEAN_ANOMALY":48.2298,"EPHEMERIS_TYPE":0,"CLASSIFICATION_TYPE":"U","NORAD_CAT_ID":53754,"ELEMENT_SET_NO":999,"REV_AT_EPOCH":18792,"BSTAR":0.0002221958,"MEAN_MOTION_DOT":4.161e-5,"MEAN_MOTION_DDOT":0},{"OBJECT_NAME":"STARLINK-35174","OBJECT_ID":"2025-207Z","EPOCH":"2026-03-09T17:24:39.222144","MEAN_MOTION":15.05689223,"ECCENTRICITY":7.935e-5,"INCLINATION":97.6027,"RA_OF_ASC_NODE":138.6483,"ARG_OF_PERICENTER":94.3438,"MEAN_ANOMALY":265.7879,"EPHEMERIS_TYPE":0,"CLASSIFICATION_TYPE":"U","NORAD_CAT_ID":65615,"ELEMENT_SET_NO":999,"REV_AT_EPOCH":2826,"BSTAR":0.00078086842,"MEAN_MOTION_DOT":0.00011236,"MEAN_MOTION_DDOT":0}]
